start=new Date('2021-10-12T00:00:00.000Z').valueOf();
sats=[{"MEAN_ELEMENT_THEORY":"SGP4","CENTER_NAME":"EARTH","INCLINATION":"53.0551","ARG_OF_PERICENTER":"104.0347","DECAY_DATE":null,"PERIAPSIS":"546.392","COUNTRY_CODE":"US","NORAD_CAT_ID":"46781","MEAN_MOTION_DOT":"0.00002269","TLE_LINE1":"1 46781U 20074AU  21284.87510861  .00002269  00000-0  17114-3 0  9998","GP_ID":"186929476","MEAN_ANOMALY":"256.0773","RCS_SIZE":"LARGE","REF_FRAME":"TEME","OBJECT_TYPE":"PAYLOAD","OBJECT_NAME":"STARLINK-1834","REV_AT_EPOCH":"5404","SEMIMAJOR_AXIS":"6925.343","EPHEMERIS_TYPE":"0","BSTAR":"0.00017114000000","OBJECT_ID":"2020-074AU","CLASSIFICATION_TYPE":"U","ECCENTRICITY":"0.00011790","EPOCH":"2021-10-11T21:00:09.383904","RA_OF_ASC_NODE":"348.3625","MEAN_MOTION":"15.06401791","SITE":"AFETR","LAUNCH_DATE":"2020-10-24","FILE":"3157563","MEAN_MOTION_DDOT":"0.0000000000000","TLE_LINE2":"2 46781  53.0551 348.3625 0001179 104.0347 256.0773 15.06401791 54042","ELEMENT_SET_NO":"999","PERIOD":"95.592","TIME_SYSTEM":"UTC","APOAPSIS":"548.025"},{"ELEMENT_SET_NO":"999","PERIOD":"95.592","TLE_LINE2":"2 46782  53.0534 338.4983 0001233  95.0153 265.0977 15.06398983 54174","FILE":"3157563","MEAN_MOTION_DDOT":"0.0000000000000","APOAPSIS":"548.071","TIME_SYSTEM":"UTC","CLASSIFICATION_TYPE":"U","OBJECT_ID":"2020-074AV","BSTAR":"0.00006578100000","EPHEMERIS_TYPE":"0","LAUNCH_DATE":"2020-10-24","MEAN_MOTION":"15.06398983","SITE":"AFETR","RA_OF_ASC_NODE":"338.4983","ECCENTRICITY":"0.00012330","EPOCH":"2021-10-11T20:19:00.689664","OBJECT_NAME":"STARLINK-1835","REV_AT_EPOCH":"5417","SEMIMAJOR_AXIS":"6925.352","OBJECT_TYPE":"PAYLOAD","REF_FRAME":"TEME","RCS_SIZE":"LARGE","MEAN_ANOMALY":"265.0977","NORAD_CAT_ID":"46782","COUNTRY_CODE":"US","PERIAPSIS":"546.363","DECAY_DATE":null,"GP_ID":"186929728","TLE_LINE1":"1 46782U 20074AV  21284.84653576  .00000699  00000-0  65781-4 0  9996","MEAN_MOTION_DOT":"0.00000699","MEAN_ELEMENT_THEORY":"SGP4","ARG_OF_PERICENTER":"95.0153","INCLINATION":"53.0534","CENTER_NAME":"EARTH"},{"TIME_SYSTEM":"UTC","APOAPSIS":"548.146","MEAN_MOTION_DDOT":"0.0000000000000","FILE":"3157563","PERIOD":"95.592","ELEMENT_SET_NO":"999","TLE_LINE2":"2 46783  53.0572 338.4138 0001329  97.5407 262.5733 15.06395933 54178","RA_OF_ASC_NODE":"338.4138","EPOCH":"2021-10-11T20:40:14.882304","ECCENTRICITY":"0.00013290","LAUNCH_DATE":"2020-10-24","MEAN_MOTION":"15.06395933","SITE":"AFETR","BSTAR":"0.00005702200000","EPHEMERIS_TYPE":"0","CLASSIFICATION_TYPE":"U","OBJECT_ID":"2020-074AW","REV_AT_EPOCH":"5417","SEMIMAJOR_AXIS":"6925.361","OBJECT_NAME":"STARLINK-1851","REF_FRAME":"TEME","OBJECT_TYPE":"PAYLOAD","RCS_SIZE":"LARGE","MEAN_ANOMALY":"262.5733","TLE_LINE1":"1 46783U 20074AW  21284.86128336  .00000568  00000-0  57022-4 0  9994","MEAN_MOTION_DOT":"0.00000568","GP_ID":"186930478","PERIAPSIS":"546.306","DECAY_DATE":null,"NORAD_CAT_ID":"46783","COUNTRY_CODE":"US","CENTER_NAME":"EARTH","INCLINATION":"53.0572","ARG_OF_PERICENTER":"97.5407","MEAN_ELEMENT_THEORY":"SGP4"},{"APOAPSIS":"547.891","TIME_SYSTEM":"UTC","ELEMENT_SET_NO":"999","PERIOD":"95.592","TLE_LINE2":"2 46784  53.0550 338.3907 0000964  88.7028 271.4071 15.06396639 54171","MEAN_MOTION_DDOT":"0.0000000000000","FILE":"3157563","LAUNCH_DATE":"2020-10-24","SITE":"AFETR","MEAN_MOTION":"15.06396639","RA_OF_ASC_NODE":"338.3907","EPOCH":"2021-10-11T20:45:33.575616","ECCENTRICITY":"0.00009640","CLASSIFICATION_TYPE":"U","OBJECT_ID":"2020-074AX","BSTAR":"0.00004588400000","EPHEMERIS_TYPE":"0","SEMIMAJOR_AXIS":"6925.359","REV_AT_EPOCH":"5417","OBJECT_NAME":"STARLINK-1882","OBJECT_TYPE":"PAYLOAD","REF_FRAME":"TEME","RCS_SIZE":"LARGE","MEAN_ANOMALY":"271.4071","GP_ID":"186929226","TLE_LINE1":"1 46784U 20074AX  21284.86497194  .00000402  00000-0  45884-4 0  9996","MEAN_MOTION_DOT":"0.00000402","NORAD_CAT_ID":"46784","COUNTRY_CODE":"US","PERIAPSIS":"546.556","DECAY_DATE":null,"ARG_OF_PERICENTER":"88.7028","CENTER_NAME":"EARTH","INCLINATION":"53.0550","MEAN_ELEMENT_THEORY":"SGP4"},{"SEMIMAJOR_AXIS":"6925.440","REV_AT_EPOCH":"5417","OBJECT_NAME":"STARLINK-1883","REF_FRAME":"TEME","OBJECT_TYPE":"PAYLOAD","TIME_SYSTEM":"UTC","APOAPSIS":"550.738","FILE":"3157563","MEAN_MOTION_DDOT":"0.0000000000000","ELEMENT_SET_NO":"999","PERIOD":"95.594","TLE_LINE2":"2 46785  53.0549 338.4756 0004957 187.1996 172.8923 15.06370053 54179","RA_OF_ASC_NODE":"338.4756","ECCENTRICITY":"0.00049570","EPOCH":"2021-10-11T20:24:22.879584","LAUNCH_DATE":"2020-10-24","MEAN_MOTION":"15.06370053","SITE":"AFETR","BSTAR":"0.00012097000000","EPHEMERIS_TYPE":"0","CLASSIFICATION_TYPE":"U","OBJECT_ID":"2020-074AY","TLE_LINE1":"1 46785U 20074AY  21284.85026481  .00001518  00000-0  12097-3 0  9991","MEAN_MOTION_DOT":"0.00001518","GP_ID":"186928977","PERIAPSIS":"543.872","DECAY_DATE":null,"NORAD_CAT_ID":"46785","COUNTRY_CODE":"US","CENTER_NAME":"EARTH","INCLINATION":"53.0549","ARG_OF_PERICENTER":"187.1996","MEAN_ELEMENT_THEORY":"SGP4","RCS_SIZE":"LARGE","MEAN_ANOMALY":"172.8923"},{"RA_OF_ASC_NODE":"318.5545","EPOCH":"2021-10-11T19:55:08.317632","ECCENTRICITY":"0.00055070","LAUNCH_DATE":"2020-10-24","MEAN_MOTION":"15.06393986","SITE":"AFETR","BSTAR":"0.00014381000000","EPHEMERIS_TYPE":"0","CLASSIFICATION_TYPE":"U","OBJECT_ID":"2020-074AZ","TIME_SYSTEM":"UTC","APOAPSIS":"551.046","MEAN_MOTION_DDOT":"0.0000000000000","FILE":"3157563","ELEMENT_SET_NO":"999","PERIOD":"95.593","TLE_LINE2":"2 46786  53.0520 318.5545 0005507 357.0906   3.0050 15.06393986 54452","REF_FRAME":"TEME","OBJECT_TYPE":"PAYLOAD","REV_AT_EPOCH":"5445","SEMIMAJOR_AXIS":"6925.367","OBJECT_NAME":"STARLINK-1893","MEAN_ANOMALY":"3.0050","RCS_SIZE":"LARGE","CENTER_NAME":"EARTH","INCLINATION":"53.0520","ARG_OF_PERICENTER":"357.0906","MEAN_ELEMENT_THEORY":"SGP4","TLE_LINE1":"1 46786U 20074AZ  21284.82995738  .00001860  00000-0  14381-3 0  9997","MEAN_MOTION_DOT":"0.00001860","GP_ID":"186930228","PERIAPSIS":"543.418","DECAY_DATE":null,"NORAD_CAT_ID":"46786","COUNTRY_CODE":"US"},{"TLE_LINE1":"1 46787U 20074BA  21284.82256995  .00000150  00000-0  29023-4 0  9994","MEAN_MOTION_DOT":"0.00000150","GP_ID":"186929979","PERIAPSIS":"543.855","DECAY_DATE":null,"NORAD_CAT_ID":"46787","COUNTRY_CODE":"US","INCLINATION":"53.0526","CENTER_NAME":"EARTH","ARG_OF_PERICENTER":"311.9630","MEAN_ELEMENT_THEORY":"SGP4","RCS_SIZE":"LARGE","MEAN_ANOMALY":"48.0944","REV_AT_EPOCH":"5445","SEMIMAJOR_AXIS":"6925.358","OBJECT_NAME":"STARLINK-1899","REF_FRAME":"TEME","OBJECT_TYPE":"PAYLOAD","TIME_SYSTEM":"UTC","APOAPSIS":"550.591","FILE":"3157563","MEAN_MOTION_DDOT":"0.0000000000000","ELEMENT_SET_NO":"999","PERIOD":"95.592","TLE_LINE2":"2 46787  53.0526 318.5919 0004863 311.9630  48.0944 15.06396917 54459","RA_OF_ASC_NODE":"318.5919","EPOCH":"2021-10-11T19:44:30.043680","ECCENTRICITY":"0.00048630","LAUNCH_DATE":"2020-10-24","MEAN_MOTION":"15.06396917","SITE":"AFETR","BSTAR":"0.00002902300000","EPHEMERIS_TYPE":"0","CLASSIFICATION_TYPE":"U","OBJECT_ID":"2020-074BA"},{"FILE":"3157563","MEAN_MOTION_DDOT":"0.0000000000000","TLE_LINE2":"2 46788  53.0571 318.6243 0006660   0.2120 359.8871 15.06395112 54458","PERIOD":"95.592","ELEMENT_SET_NO":"999","TIME_SYSTEM":"UTC","APOAPSIS":"551.841","EPHEMERIS_TYPE":"0","BSTAR":"-0.00000431050000","OBJECT_ID":"2020-074BB","CLASSIFICATION_TYPE":"U","EPOCH":"2021-10-11T19:33:54.497376","ECCENTRICITY":"0.00066600","RA_OF_ASC_NODE":"318.6243","SITE":"AFETR","MEAN_MOTION":"15.06395112","LAUNCH_DATE":"2020-10-24","OBJECT_NAME":"STARLINK-1929","REV_AT_EPOCH":"5445","SEMIMAJOR_AXIS":"6925.364","REF_FRAME":"TEME","OBJECT_TYPE":"PAYLOAD","RCS_SIZE":"LARGE","MEAN_ANOMALY":"359.8871","DECAY_DATE":null,"PERIAPSIS":"542.616","COUNTRY_CODE":"US","NORAD_CAT_ID":"46788","MEAN_MOTION_DOT":"-0.00000348","TLE_LINE1":"1 46788U 20074BB  21284.81521409 -.00000348  00000-0 -43105-5 0  9998","GP_ID":"186928727","MEAN_ELEMENT_THEORY":"SGP4","INCLINATION":"53.0571","CENTER_NAME":"EARTH","ARG_OF_PERICENTER":"0.2120"},{"MEAN_ANOMALY":"270.6002","RCS_SIZE":"LARGE","MEAN_ELEMENT_THEORY":"SGP4","ARG_OF_PERICENTER":"89.5100","CENTER_NAME":"EARTH","INCLINATION":"53.0546","NORAD_CAT_ID":"46789","COUNTRY_CODE":"US","PERIAPSIS":"546.519","DECAY_DATE":null,"GP_ID":"186929477","TLE_LINE1":"1 46789U 20074BC  21284.88889703  .00002260  00000-0  17054-3 0  9995","MEAN_MOTION_DOT":"0.00002260","CLASSIFICATION_TYPE":"U","OBJECT_ID":"2020-074BC","BSTAR":"0.00017054000000","EPHEMERIS_TYPE":"0","LAUNCH_DATE":"2020-10-24","SITE":"AFETR","MEAN_MOTION":"15.06405228","RA_OF_ASC_NODE":"348.2965","ECCENTRICITY":"0.00009800","EPOCH":"2021-10-11T21:20:00.703392","ELEMENT_SET_NO":"999","PERIOD":"95.592","TLE_LINE2":"2 46789  53.0546 348.2965 0000980  89.5100 270.6002 15.06405228 54049","FILE":"3157563","MEAN_MOTION_DDOT":"0.0000000000000","APOAPSIS":"547.876","TIME_SYSTEM":"UTC","OBJECT_TYPE":"PAYLOAD","REF_FRAME":"TEME","OBJECT_NAME":"STARLINK-1930","SEMIMAJOR_AXIS":"6925.333","REV_AT_EPOCH":"5404"},{"REF_FRAME":"TEME","OBJECT_TYPE":"PAYLOAD","OBJECT_NAME":"STARLINK-1931","REV_AT_EPOCH":"5397","SEMIMAJOR_AXIS":"6925.349","EPHEMERIS_TYPE":"0","BSTAR":"0.00020121000000","OBJECT_ID":"2020-074BD","CLASSIFICATION_TYPE":"U","EPOCH":"2021-10-11T11:16:18.002784","ECCENTRICITY":"0.00010090","RA_OF_ASC_NODE":"350.1689","MEAN_MOTION":"15.06399999","SITE":"AFETR","LAUNCH_DATE":"2020-10-24","MEAN_MOTION_DDOT":"0.0000000000000","FILE":"3157068","TLE_LINE2":"2 46790  53.0565 350.1689 0001009  90.2061 269.9043 15.06399999 53979","ELEMENT_SET_NO":"999","PERIOD":"95.592","TIME_SYSTEM":"UTC","APOAPSIS":"547.912","MEAN_ELEMENT_THEORY":"SGP4","INCLINATION":"53.0565","CENTER_NAME":"EARTH","ARG_OF_PERICENTER":"90.2061","DECAY_DATE":null,"PERIAPSIS":"546.515","COUNTRY_CODE":"US","NORAD_CAT_ID":"46790","MEAN_MOTION_DOT":"0.00002717","TLE_LINE1":"1 46790U 20074BD  21284.46965281  .00002717  00000-0  20121-3 0  9993","GP_ID":"186895525","MEAN_ANOMALY":"269.9043","RCS_SIZE":"LARGE"}];
